STARLINK-4203           
1 53021U 22076AM  22206.58334491  .00043383  00000+0  31263-3 0  9995
2 53021  53.2190 290.2984 0002133  26.6269 141.1942 15.73146332  1308
STARLINK-4216           
1 53022U 22076AN  22206.58334491  .00055888  00000+0  40002-3 0  9990
2 53022  53.2190 290.3016 0002134  31.7870 134.2163 15.73196458  1304
STARLINK-4284           
1 53023U 22076AP  22206.58334491  .00038959  00000+0  28111-3 0  9998
2 53023  53.2191 290.2965 0002117  36.4457 132.6197 15.73166223  1308
STARLINK-4289           
1 53024U 22076AQ  22206.58334491  .00039933  00000+0  28821-3 0  9990
2 53024  53.2188 290.2967 0001927  42.1216 126.3459 15.73148724  1309
STARLINK-4218           
1 53025U 22076AR  22206.58334491 -.00050728  00000+0 -35877-3 0  9997
2 53025  53.2188 290.2927 0001651  27.6570 142.6207 15.73226773  1304
STARLINK-4119           
1 53026U 22076AS  22206.58334491  .00043437  00000+0  31294-3 0  9994
2 53026  53.2188 290.2985 0002006  25.4807 141.7671 15.73151840  1300
STARLINK-4158           
1 53027U 22076AT  22206.58334491  .00043073  00000+0  30996-3 0  9999
2 53027  53.2189 290.2908 0001723  39.1353 132.8261 15.73182991  1307
STARLINK-4161           
1 53028U 22076AU  22206.58334491  .00023287  00000+0  16985-3 0  9997
2 53028  53.2189 290.2942 0001859  43.5853 126.0509 15.73203704  1306
STARLINK-4143           
1 53029U 22076AV  22206.58334491  .00041873  00000+0  30190-3 0  9993
2 53029  53.2190 290.2901 0002211  35.5078 137.1106 15.73150570  1305
STARLINK-4160           
1 53030U 22076AW  22206.58334491  .00043124  00000+0  31056-3 0  9998
2 53030  53.2187 290.2912 0001870  46.0458 124.7914 15.73164868  1308
STARLINK-4137           
1 53031U 22076AX  22206.58334491  .00042961  00000+0  30936-3 0  9993
2 53031  53.2189 290.2859 0001807  37.0005 137.3863 15.73168501  1300
STARLINK-4115           
1 53032U 22076AY  22206.58334491  .00043071  00000+0  31042-3 0  9996
2 53032  53.2181 290.2890 0002223  33.5749 137.8574 15.73146123  1307
STARLINK-4167           
1 53033U 22076AZ  22206.58334491  .00040771  00000+0  29356-3 0  9996
2 53033  53.2191 290.2879 0001957  43.1746 130.5970 15.73194789  1304
STARLINK-4151           
1 53034U 22076BA  22206.58334491  .00040253  00000+0  28997-3 0  9992
2 53034  53.2192 290.2887 0002003  21.4493 151.7513 15.73189506  1305
STARLINK-4157           
1 53035U 22076BB  22206.58334491  .00041774  00000+0  30075-3 0  9992
2 53035  53.2190 290.2855 0002226  34.0385 140.9410 15.73185592  1303
STARLINK-4155           
1 53036U 22076BC  22206.58334491  .00044142  00000+0  31749-3 0  9994
2 53036  53.2186 290.2820 0002000  41.9947 133.5518 15.73183879  1305
STARLINK-4153           
1 53037U 22076BD  22206.58334491  .00040620  00000+0  29263-3 0  9990
2 53037  53.2188 290.2821 0001819  36.1244 140.0171 15.73183946  1305
STARLINK-4156           
1 53038U 22076BE  22206.58334491  .00040701  00000+0  29355-3 0  9993
2 53038  53.2186 290.2796 0002083  36.4882 140.2705 15.73155550  1305
FALCON 9 DEB            
1 53039U 22076BF  22206.44366785  .05811674  12259-4  52420-3 0  9993
2 53039  53.2128 287.4600 0014768 100.0642 260.2073 16.37785394  2891
FALCON 9 DEB            
1 53040U 22076BG  22206.56284861  .05497384  12262-4  53734-3 0  9993
2 53040  53.1998 286.7648 0014897  94.1642 266.1108 16.37088561  2916
FALCON 9 DEB            
1 53041U 22076BH  22206.30479804  .05413500  12272-4  55426-3 0  9998
2 53041  53.2151 287.9997 0014692  86.0942 274.1785 16.36697812  2874
FALCON 9 DEB            
1 53042U 22076BJ  22205.61508775  .09460548  12514-4  25834-3 0  9999
2 53042  53.2165 291.5085 0008891  77.6583 282.5463 16.44911172  2761
STARLINK-4362           
1 53043U 22077A   22206.58334491 -.01168926  00000+0 -10802-1 0  9998
2 53043  97.6547  25.4835 0001542  97.0841 168.7302 15.70394808  1589
STARLINK-4349           
1 53044U 22077B   22206.58334491 -.01376579  00000+0 -15120-1 0  9992
2 53044  97.6553  25.4836 0001792  69.2001 187.1292 15.66192490  1305
STARLINK-4350           
1 53045U 22077C   22206.58334491 -.01377377  00000+0 -15125-1 0  9995
2 53045  97.6553  25.4838 0001726  93.0260 163.9396 15.66201213  1308
STARLINK-4331           
1 53046U 22077D   22206.58334491 -.01377635  00000+0 -15123-1 0  9991
2 53046  97.6553  25.4836 0001736  97.9057 159.6963 15.66209608  1303
STARLINK-4352           
1 53047U 22077E   22206.58334491 -.01377383  00000+0 -15110-1 0  9998
2 53047  97.6553  25.4840 0001722  93.3921 165.4826 15.66225953  1308
STARLINK-4355           
1 53048U 22077F   22206.58334491 -.01376965  00000+0 -15110-1 0  9994
2 53048  97.6553  25.4839 0001723  84.1839 174.0545 15.66217465  1307
STARLINK-4345           
1 53049U 22077G   22206.58334491 -.01376972  00000+0 -15090-1 0  9990
2 53049  97.6553  25.4840 0001716  85.0004 175.7826 15.66250467  1305
STARLINK-4343           
1 53050U 22077H   22206.58334491 -.01377301  00000+0 -15104-1 0  9995
2 53050  97.6553  25.4838 0001719  92.2168 167.2940 15.66234157  1309
STARLINK-4336           
1 53051U 22077J   22206.58334491 -.01377139  00000+0 -15082-1 0  9990
2 53051  97.6553  25.4842 0001711  89.1231 172.9316 15.66267042  1302
STARLINK-4341           
1 53052U 22077K   22206.58334491 -.01376732  00000+0 -15092-1 0  9990
2 53052  97.6553  25.4838 0001737  77.4500 182.6970 15.66242091  1306
STARLINK-4337           
1 53053U 22077L   22206.58334491 -.01377308  00000+0 -15074-1 0  9991
2 53053  97.6553  25.4845 0001710  92.4538 170.8723 15.66283615  1306
STARLINK-4339           
1 53054U 22077M   22206.58334491 -.01376892  00000+0 -15084-1 0  9990
2 53054  97.6553  25.4841 0001721  81.4556 179.9633 15.66258648  1301
STARLINK-4338           
1 53055U 22077N   22206.58334491 -.01376977  00000+0 -15060-1 0  9999
2 53055  97.6553  25.4844 0001709  83.5176 181.0796 15.66299916  1309
STARLINK-4314           
1 53056U 22077P   22206.58334491 -.01377390  00000+0 -15080-1 0  9992
2 53056  97.6553  25.4844 0001713  93.5237 169.1667 15.66275398  1306
STARLINK-4252           
1 53057U 22077Q   22206.58334491 -.01377397  00000+0 -15055-1 0  9992
2 53057  97.6553  25.4847 0001708  94.9569 170.9111 15.66316649  1306
STARLINK-4317           
1 53058U 22077R   22206.58334491 -.01376896  00000+0 -15064-1 0  9996
2 53058  97.6553  25.4843 0001715  81.3007 182.6610 15.66291630  1304
STARLINK-4320           
1 53059U 22077S   22206.58334491 -.01377145  00000+0 -15042-1 0  9991
2 53059  97.6553  25.4847 0001699  89.9782 177.1602 15.66333022  1306
STARLINK-4305           
1 53060U 22077T   22206.58334491 -.01377226  00000+0 -15058-1 0  9990
2 53060  97.6553  25.4846 0001704  90.2442 174.9885 15.66308291  1300
STARLINK-4308           
1 53061U 22077U   22206.58334491 -.01376822  00000+0 -15028-1 0  9999
2 53061  97.6553  25.4850 0001716  77.3681 191.0405 15.66349325  1301
STARLINK-4311           
1 53062U 22077V   22206.58334491 -.01377227  00000+0 -15048-1 0  9992
2 53062  97.6553  25.4846 0001701  90.6763 175.8269 15.66324788  1304
STARLINK-4307           
1 53063U 22077W   22206.58334491 -.01377313  00000+0 -15024-1 0  9993
2 53063  97.6553  25.4849 0001694  92.5026 177.1757 15.66366098  1309
STARLINK-4313           
1 53064U 22077X   22206.58334491 -.01377145  00000+0 -15037-1 0  9991
2 53064  97.6553  25.4846 0001697  89.9060 177.8676 15.66341265  1304
STARLINK-4312           
1 53065U 22077Y   22206.58334491 -.01377663  00000+0 -15023-1 0  9992
2 53065  97.6552  25.4849 0001721 101.9650 168.3481 15.66374540  1306
STARLINK-4309           
1 53066U 22077Z   22206.58334491 -.01377924  00000+0 -15036-1 0  9997
2 53066  97.6553  25.4848 0001743 105.6084 163.4350 15.66358173  1308
STARLINK-4306           
1 53067U 22077AA  22206.58334491 -.01376836  00000+0 -14998-1 0  9995
2 53067  97.6552  25.4852 0001736  71.3376 200.8794 15.66398809  1306
STARLINK-4325           
1 53068U 22077AB  22206.58334491 -.01377314  00000+0 -15014-1 0  9998
2 53068  97.6552  25.4848 0001694  94.3647 176.5831 15.66382583  1304
STARLINK-4323           
1 53069U 22077AC  22206.58334491 -.01377400  00000+0 -14995-1 0  9992
2 53069  97.6552  25.4852 0001695  97.3619 176.1238 15.66415616  1304
STARLINK-4342           
1 53070U 22077AD  22206.58334491 -.01376780  00000+0 -15002-1 0  9994
2 53070  97.6552  25.4851 0001782  65.4151 206.1673 15.66390573  1300
STARLINK-4328           
1 53071U 22077AE  22206.58334491 -.01376898  00000+0 -14979-1 0  9997
2 53071  97.6552  25.4854 0001696  78.1464 196.6079 15.66431840  1302
STARLINK-4344           
1 53072U 22077AF  22206.58334491 -.01376829  00000+0 -14993-1 0  9998
2 53072  97.6552  25.4850 0001721  73.5966 199.2548 15.66407069  1300
STARLINK-4346           
1 53073U 22077AG  22206.58334491 -.01377223  00000+0 -14973-1 0  9996
2 53073  97.6552  25.4854 0001680  93.3283 182.6942 15.66448505  1305
STARLINK-4310           
1 53074U 22077AH  22206.58334491 -.01377570  00000+0 -14992-1 0  9993
2 53074  97.6552  25.4850 0001703 100.1333 173.9868 15.66423929  1304
STARLINK-4348           
1 53075U 22077AJ  22206.58334491 -.01377569  00000+0 -14967-1 0  9994
2 53075  97.6552  25.4854 0001701 101.5225 175.7678 15.66465169  1303
STARLINK-4347           
1 53076U 22077AK  22206.58334491 -.01376897  00000+0 -14974-1 0  9996
2 53076  97.6552  25.4853 0001695  78.0340 197.3545 15.66440091  1301
STARLINK-4315           
1 53077U 22077AL  22206.58334491 -.01377217  00000+0 -14953-1 0  9991
2 53077  97.6552  25.4857 0001673  93.2645 185.2933 15.66481483  1306
STARLINK-4322           
1 53078U 22077AM  22206.58334491 -.01377052  00000+0 -14966-1 0  9993
2 53078  97.6552  25.4853 0001675  85.8574 190.7991 15.66456644  1309
STARLINK-4327           
1 53079U 22077AN  22206.58334491 -.01377128  00000+0 -14947-1 0  9997
2 53079  97.6552  25.4857 0001667  89.0677 190.1238 15.66489668  1305
